OBJECT_NAME,OBJECT_ID,EPOCH,MEAN_MOTION,ECCENTRICITY,INCLINATION,RA_OF_ASC_NODE,ARG_OF_PERICENTER,MEAN_ANOMALY,EPHEMERIS_TYPE,CLASSIFICATION_TYPE,NORAD_CAT_ID,ELEMENT_SET_NO,REV_AT_EPOCH,BSTAR,MEAN_MOTION_DOT,MEAN_MOTION_DDOT
APRIZESAT 2,2004-025A,2026-07-23T09:31:27.349248,14.38050651,.0106426,98.1051,8.3335,140.2707,220.6338,0,U,28366,999,15684,.76955E-4,.207E-5,0
SAUDICOMSAT 1,2004-025D,2026-07-24T06:37:54.079968,14.55498543,.00308388,98.5781,216.4105,269.9821,89.7842,0,U,28369,999,16952,.85035559E-4,.322E-5,0
SAUDICOMSAT 2,2004-025E,2026-07-23T20:04:33.778848,14.49997943,.00561779,98.6645,218.1192,147.6789,212.7866,0,U,28370,999,16541,.74658954E-4,.246E-5,0
APRIZESAT 1,2004-025G,2026-07-23T11:28:28.746336,14.51795571,.0045465,98.6312,216.1924,46.1049,314.3885,0,U,28372,999,16717,.67077E-4,.224E-5,0
NANOSAT-1,2004-049B,2026-07-24T06:44:59.333856,14.80225099,.00044212,98.2320,342.8602,156.8458,203.2953,0,U,28493,999,16093,.14221548E-3,.1026E-4,0
SAUDICOMSAT 7,2007-012C,2026-07-23T21:33:31.252032,14.66144432,.00570149,98.3806,179.7869,81.6350,279.1312,0,U,31119,999,2781,.11521191E-3,.595E-5,0
SAUDICOMSAT 6,2007-012E,2026-07-23T21:30:53.216928,14.62589820,.0070946,98.4125,173.1026,211.6622,148.0302,0,U,31121,999,2555,.76003222E-4,.346E-5,0
SAUDICOMSAT 5,2007-012H,2026-07-23T22:57:25.764480,14.68201484,.00476515,98.3517,180.5864,11.6224,348.6069,0,U,31124,999,2899,.12480604E-3,.677E-5,0
SAUDICOMSAT 3,2007-012J,2026-07-23T04:08:59.614944,14.70758420,.00378413,98.3172,180.3325,299.3530,60.3898,0,U,31125,999,3011,.11369514E-3,.646E-5,0
SAUDICOMSAT 4,2007-012L,2026-07-24T04:26:51.705888,14.64542149,.00641462,98.4012,178.5160,141.8667,218.7100,0,U,31127,999,2670,.99039511E-4,.488E-5,0
APRIZESAT 4,2009-041D,2026-07-24T05:01:11.434368,14.83924453,.00428245,98.1396,281.2654,199.7953,160.1600,0,U,35684,999,91685,.97880257E-4,.767E-5,0
APRIZESAT 3,2009-041F,2026-07-23T22:41:56.566176,14.96322017,.00606274,98.2106,359.9426,306.4705,53.0936,0,U,35686,999,92187,.57142563E-4,.6E-5,0
S-NET D,2018-014G,2026-07-24T06:32:06.536832,15.16984002,.0006351,97.5321,109.8325,244.6500,115.4075,0,U,43186,999,46438,.29985583E-3,.5858E-4,0
S-NET B,2018-014H,2026-07-24T06:49:39.512640,15.16952740,.00070371,97.5326,109.8321,239.3514,120.7025,0,U,43187,999,46438,.30362345E-3,.5927E-4,0
S-NET A,2018-014J,2026-07-24T06:30:11.982528,15.16992320,.00069252,97.5337,110.0346,240.0844,119.9702,0,U,43188,999,46438,.29825304E-3,.5828E-4,0
S-NET C,2018-014K,2026-07-24T06:55:32.063520,15.16943716,.00083989,97.5355,110.1326,232.4050,127.6421,0,U,43189,999,46293,.30411278E-3,.5937E-4,0
SALSAT,2020-068K,2026-07-24T05:26:36.991392,15.30274447,.00101826,97.8865,210.5620,161.9998,198.1604,0,U,46495,999,32102,.30305131E-3,.8806E-4,0
OOV-CUBE (TUBSAT-30),2024-128F,2026-07-24T02:47:08.608704,15.02903757,.00399671,61.9942,96.7912,142.0849,218.3069,0,U,60240,999,11166,.16614669E-3,.2064E-4,0
LPNTSAT-001 (IOD-1),2026-065A,2026-07-24T04:09:43.047360,15.18703049,.00149313,97.3968,84.8948,231.8244,128.1646,0,U,68408,999,1787,.12325828E-3,.2496E-4,0
CHUANG XIN 26 (CX-26),2026-158A,2026-07-24T07:30:56.914272,14.25116005,.00049347,49.9824,241.9374,331.0127,29.0512,0,U,69972,999,200,-.50552393E-4,-.279E-5,0
