{"epoch":1784902576,"count":18312,"objects":[{"id":"28366","name":"APRIZESAT 2","type":"PAYLOAD","l1":"1 28366U 04025A   26204.39684432  .00000207  00000-0  76955-4 0  9994","l2":"2 28366  98.1051   8.3335 0106426 140.2707 220.6338 14.38050651156844"},{"id":"28369","name":"SAUDICOMSAT 1","type":"PAYLOAD","l1":"1 28369U 04025D   26205.27632037  .00000322  00000-0  85036-4 0  9997","l2":"2 28369  98.5781 216.4105 0030839 269.9821  89.7842 14.55498543169526"},{"id":"28370","name":"SAUDICOMSAT 2","type":"PAYLOAD","l1":"1 28370U 04025E   26204.83650207  .00000246  00000-0  74659-4 0  9993","l2":"2 28370  98.6645 218.1192 0056178 147.6789 212.7866 14.49997943165411"},{"id":"28372","name":"APRIZESAT 1","type":"PAYLOAD","l1":"1 28372U 04025G   26204.47811049  .00000224  00000-0  67077-4 0  9990","l2":"2 28372  98.6312 216.1924 0045465  46.1049 314.3885 14.51795571167175"},{"id":"28493","name":"NANOSAT(1)","type":"PAYLOAD","l1":"1 28493U 04049B   26205.28124229  .00001026  00000-0  14222-3 0  9991","l2":"2 28493  98.2320 342.8602 0004421 156.8458 203.2953 14.80225099160938"},{"id":"31119","name":"SAUDICOMSAT 7","type":"PAYLOAD","l1":"1 31119U 07012C   26204.89827838  .00000595  00000-0  11521-3 0  9994","l2":"2 31119  98.3806 179.7869 0057015  81.6350 279.1312 14.66144432 27817"},{"id":"31121","name":"SAUDICOMSAT 6","type":"PAYLOAD","l1":"1 31121U 07012E   26204.89644927  .00000346  00000-0  76003-4 0  9994","l2":"2 31121  98.4125 173.1026 0070946 211.6622 148.0302 14.62589820 25555"},{"id":"31124","name":"SAUDICOMSAT 5","type":"PAYLOAD","l1":"1 31124U 07012H   26204.95654820  .00000677  00000-0  12481-3 0  9993","l2":"2 31124  98.3517 180.5864 0047652  11.6224 348.6069 14.68201484 28990"},{"id":"31125","name":"SAUDICOMSAT 3","type":"PAYLOAD","l1":"1 31125U 07012J   26204.17291221  .00000646  00000-0  11370-3 0  9992","l2":"2 31125  98.3172 180.3325 0037841 299.3530  60.3898 14.70758420 30117"},{"id":"31127","name":"SAUDICOMSAT 4","type":"PAYLOAD","l1":"1 31127U 07012L   26205.18532067  .00000488  00000-0  99040-4 0  9997","l2":"2 31127  98.4012 178.5160 0064146 141.8667 218.7100 14.64542149 26706"},{"id":"35684","name":"APRIZESAT 4","type":"PAYLOAD","l1":"1 35684U 09041D   26205.20916012  .00000767  00000-0  97880-4 0  9992","l2":"2 35684  98.1396 281.2654 0042824 199.7953 160.1600 14.83924453916851"},{"id":"35686","name":"APRIZESAT 3","type":"PAYLOAD","l1":"1 35686U 09041F   26204.94579359  .00000600  00000-0  57143-4 0  9997","l2":"2 35686  98.2106 359.9426 0060627 306.4705  53.0936 14.96322017921878"},{"id":"43186","name":"S-NET D","type":"PAYLOAD","l1":"1 43186U 18014G   26205.27229788  .00005858  00000-0  29986-3 0  9999","l2":"2 43186  97.5321 109.8325 0006351 244.6500 115.4075 15.16984002464389"},{"id":"43187","name":"S-NET B","type":"PAYLOAD","l1":"1 43187U 18014H   26205.28448510  .00005927  00000-0  30362-3 0  9994","l2":"2 43187  97.5326 109.8321 0007037 239.3514 120.7025 15.16952740464387"},{"id":"43188","name":"S-NET A","type":"PAYLOAD","l1":"1 43188U 18014J   26205.27097202  .00005828  00000-0  29825-3 0  9994","l2":"2 43188  97.5337 110.0346 0006925 240.0844 119.9702 15.16992320464381"},{"id":"43189","name":"S-NET C","type":"PAYLOAD","l1":"1 43189U 18014K   26205.28856555  .00005937  00000-0  30411-3 0  9994","l2":"2 43189  97.5355 110.1326 0008399 232.4050 127.6421 15.16943716462930"},{"id":"46495","name":"SALSAT","type":"PAYLOAD","l1":"1 46495U 20068K   26205.22681703  .00008806  00000-0  30305-3 0  9994","l2":"2 46495  97.8865 210.5620 0010183 161.9998 198.1604 15.30274447321029"},{"id":"60240","name":"OOV-CUBE","type":"PAYLOAD","l1":"1 60240U 24128F   26205.11607186  .00002064  00000-0  16615-3 0  9998","l2":"2 60240  61.9942  96.7912 0039967 142.0849 218.3069 15.02903757111664"},{"id":"68408","name":"LPNTSAT-001","type":"PAYLOAD","l1":"1 68408U 26065A   26205.17341490  .00002496  00000-0  12326-3 0  9997","l2":"2 68408  97.3968  84.8948 0014931 231.8244 128.1646 15.18703049 17872"},{"id":"69972","name":"CHUANG XIN 26 (CX-26)","type":"PAYLOAD","l1":"1 69972U 26158A   26205.31315873 -.00000279  00000-0 -50552-4 0  9992","l2":"2 69972  49.9824 241.9374 0004935 331.0127  29.0512 14.25116005  2005"}]}